    CK17C020  2017 01 21.3870  2.421853  0.974723  138.5659  249.7557  118.5851  20210511  14.0  4.0  C/2017 C2 (PANSTARRS)                                    MPC107685
    PK17D010  2016 06 23.5442  2.722730  0.436254    8.0242   82.1803   20.7559  20210511  14.0  4.0  P/2017 D1 (Fuls)                                         MPC104793
    CK17D020  2017 07 14.8933  2.492051  0.999581  334.5578  330.9488   31.2581  20210511  11.0  4.0  C/2017 D2 (Barros)                                       MPC112391
    CK17D030  2017 04 27.4362  4.971373  1.002229  340.8543  186.6903  125.5876  20210511   8.0  4.0  C/2017 D3 (ATLAS)                                        MPC114598
    PK17D040  2016 09  4.9192  2.810125  0.628310  212.2587  264.9375   10.5316  20210511  13.0  4.0  P/2017 D4 (PANSTARRS)                                    MPC110495
    CK17D050  2017 01  9.6634  2.157742  0.981085  287.6905   92.7018  131.0437  20210511  16.0  4.0  C/2017 D5 (PANSTARRS)                                    MPC104794
    CK17E010  2017 04 10.6069  0.903296  1.003154  152.7250  142.5629   14.5726  20210511  14.0  4.0  C/2017 E1 (Borisov)                                      MPC106346
    CK17E020  2016 05 11.7118  2.348885  0.890872   89.3432   11.6334   79.0955  20210511  11.5  4.0  C/2017 E2 (Tsuchinshan)                                  MPC109144
    CK17E030  2017 06  7.7977  5.938353  1.006422  334.5079  220.7591   70.6454  20210511   6.5  4.0  C/2017 E3 (PANSTARRS)                                    MPC115882
    CK17E040  2017 04 23.5847  0.491030  1.001495   87.0655  222.9461   88.0447  20210511  17.0  4.0  C/2017 E4 (Lovejoy)                                      MPC105239
    CK17E050  2016 06 10.9375  1.787607  0.995540  306.9510  206.3957  122.6704  20210511  13.0  4.0  C/2017 E5 (Lemmon)                                       MPC105239
    CK17F010  2017 11 29.8383  4.496195  1.003065   64.7437  158.7882  146.4608  20210511  10.5  4.0  C/2017 F1 (Lemmon)                                       MPC111769
    CK17F020  2017 11 27.0124  6.931260  1.003150  135.0134   38.6801   42.5303  20210511   7.5  4.0  C/2017 F2 (PANSTARRS)                                    MPC114598
    PK17G010  2016 04 27.0753  2.528423  0.652923  224.5076  249.6316    4.7753  20210511  13.5  4.0  P/2017 G1 (PANSTARRS)                                    MPC104794
    PK17G020  2017 06 10.9899  2.838780  0.647960  105.5376   79.7886   47.9465  20210511  13.0  4.0  P/2017 G2 (PANSTARRS)                                    MPC108595
    CK17G030  2017 04 16.0077  2.587336  0.991786   73.1056  279.4733  159.0503  20210511  14.0  4.0  C/2017 G3 (PANSTARRS)                                    MPC109144
    CK17K010  2018 03 17.7420  7.289500  1.002750    4.4227  225.6800  154.0167  20210511   7.0  4.0  C/2017 K1 (PANSTARRS)                                    MPC115882
    CK17K020  2022 12 19.7583  1.797663  1.000554  236.1867   88.2459   87.5517  20210511   1.5  4.0  C/2017 K2 (PANSTARRS)                                    MPC119995
    PK17K030  2017 05 31.0284  2.343367  0.580275  253.5041  354.2800    4.2730  20210511  14.5  4.0  P/2017 K3 (Gasparovic)                                   MPC106346
    CK17K040  2018 01  8.5258  2.652804  0.907161   15.2670  298.8731   16.6791  20210511  10.0  4.0  C/2017 K4 (ATLAS)                                        MPC114598
    CK17K050  2020 03 26.7392  7.680796  1.006147  172.0101  102.3717   82.2339  20210511   5.0  4.0  C/2017 K5 (PANSTARRS)                                    MPC119995
    CK17K060  2018 01  3.5204  1.996857  0.998167  303.7523   85.0140   57.2427  20210511  11.0  4.0  C/2017 K6 (Jacques)                                      MPC114599
    CK17M030  2017 04 28.1264  4.655831  0.972085  110.3218    7.0238   77.5690  20210511  10.5  4.0  C/2017 M3 (PANSTARRS)                                    MPC110083
    CK17M040  2019 01 17.9360  3.253265  1.001292  167.6041   65.8886  105.6487  20210511   6.0  4.0  C/2017 M4 (ATLAS)                                        MPC118093
    CK17M050  2018 06  4.3366  5.995691  1.005473   92.7808  216.2851   15.8747  20210511   6.5  4.0  C/2017 M5 (TOTAS)                                        MPC118841
    CK17O010  2017 10 15.0396  1.493458  0.995836   20.8380   25.7470   39.9250  20210511  11.0  4.0  C/2017 O1 (ASASSN)                                       MPC114599
    PK17P010  2018 06 19.9239  5.443163  0.310891  122.3671  221.3953    7.6949  20210511  10.0  4.0  P/2017 P1 (PANSTARRS)                                    MPC114599
    CK17P020  2017 12  6.5922  2.467391  0.998921  132.4008  165.4718   50.0509  20210511  10.0  4.0  C/2017 P2 (PANSTARRS)                                    MPC114599
    PK17R010  2017 04 10.5705  3.325896  0.195688  178.6253  143.6165    2.5743  20210511  13.5  4.0  P/2017 R1 (PANSTARRS)                                    MPC114599
    CK17S020  2017 08 29.9945  3.611395  0.824401  305.9887   62.3838   12.6753  20210511  13.0  4.0  C/2017 S2 (PANSTARRS)                                    MPC108595
    CK17S030  2018 08 16.1109  0.207685  1.000058  255.8330  171.2467   99.1716  20210511  11.0  4.0  C/2017 S3 (PANSTARRS)                                    MPC114599
    PK17S050  2023 03 19.4844  2.172089  0.314304   99.8836  252.3688   11.8521  20210511  14.0  4.0  P/2017 S5 (ATLAS)                                        MPC114599
    CK17S060  2018 02 26.3192  1.545435  1.000675  134.8416  131.0414  152.8674  20210511  12.5  4.0  C/2017 S6 (Catalina)                                     MPC109591
    CK17S070  2017 05 24.7648  7.606707  0.999888  187.5581  262.7703  124.2275  20210511   7.0  4.0  C/2017 S7 (Lemmon)                                       MPC114599
    PK17S080  2022 09 16.0651  1.691226  0.391748  254.7608  191.5879   29.8267  20210511  16.0  4.0  P/2017 S8 (PANSTARRS)                                    MPC114599
    PK17S090  2023 02 27.7496  2.190974  0.305246  237.7045  146.2230   14.1439  20210511  17.0  4.0  P/2017 S9 (PANSTARRS)                                    MPC107050
    CK17T010  2018 02 21.0785  0.583423  0.999965   96.9569  102.3558   96.8508  20210511  14.5  4.0  C/2017 T1 (Heinze)                                       MPC114600
    CK17T020  2020 05  4.9268  1.615412  0.999404   93.0031   64.3771   57.2257  20210511   5.0  4.0  C/2017 T2 (PANSTARRS)                                    MPC119996
    CK17T030  2018 07 18.8699  0.824989  0.999310  246.8301  230.1081   88.0959  20210511  10.0  4.0  C/2017 T3 (ATLAS)                                        MPC114600
    PK17T13W  2018 06 20.8927  2.074831  0.709505  119.9762  322.2978   44.8501  20210511  15.0  2.0  P/2017 TW13 (Lemmon)                                     MPC115882
    CK17U020  2017 08 28.2040  6.707903  0.997830  147.8097  149.7072   95.3874  20210511   9.0  4.0  C/2017 U2 (Fuls)                                         MPC114600
    PK17U030  2019 04 15.8167  4.441936  0.098897  296.8025  165.1084   15.9172  20210511  11.0  4.0  P/2017 U3 (PANSTARRS)                                    MPC114600
    CK17U040  2018 09 23.2107  7.720821  1.002037  159.0210  245.9401  158.2142  20210511   7.0  4.0  C/2017 U4 (PANSTARRS)                                    MPC114600
    CK17U050  2017 12 18.5131  4.319728  0.744041  262.0171  163.0852   18.9754  20210511  12.0  4.0  C/2017 U5 (PANSTARRS)                                    MPC114600
    CK17U070  2019 09 14.1340  6.423238  1.000523  326.3142  276.2447  142.5907  20210511   8.3  2.0  C/2017 U7                                                MPC118841
    CK17W020  2017 11  1.1397  3.951220  0.710604  169.0139  312.8417   98.1990  20210511  11.0  4.0  C/2017 W2 (Leonard)                                      MPC114600
    PK17W030  2018 02 28.8376  3.863595  0.507326  327.8209  210.2788   18.1675  20210511  10.5  4.0  P/2017 W3 (Gibbs)                                        MPC114601
    CK17X010  2018 06 15.1015  4.669386  0.850756  283.2796  251.1307   31.3064  20210511  10.0  4.0  C/2017 X1 (PANSTARRS)                                    MPC115883
    CK17Y010  2017 08 31.1952  3.710264  0.997923  134.2937  307.5294   55.2661  20210511  11.5  4.0  C/2017 Y1 (PANSTARRS)                                    MPC117069
    CK17Y020  2020 11  4.7514  4.632275  1.000816  147.8929   65.9943  128.4113  20210511  15.0  4.0  C/2017 Y2 (PANSTARRS)                                    MPC118841
    PK17Y030  2018 02 10.4909  1.279435  0.870031   67.6067  153.8449   27.5588  20210511  16.5  4.0  P/2017 Y3 (Leonard)                                      MPC111770
    CK18A010  2017 10 20.5442  2.413476  0.903838   96.2490  336.6560   53.6111  20210511  12.5  4.0  C/2018 A1 (PANSTARRS)                                    MPC114601
    CK18A030  2019 01 12.4730  3.275490  0.992725   86.3814  194.2937  139.5404  20210511   8.5  4.0  C/2018 A3 (ATLAS)                                        MPC119996
    CK18A040  2018 05 18.5008  2.398639  0.803353  356.0217   97.6255    3.1484  20210511  14.0  4.0  C/2018 A4 (PANSTARRS)                                    MPC114601
    PK18A050  2017 09 23.0155  2.691122  0.522358  359.5511   87.8198   23.5830  20210511  15.0  4.0  P/2018 A5 (PANSTARRS)                                    MPC109147
    CK18A060  2019 07 13.9805  3.019158  0.802392  264.5406  340.3758   77.0147  20210511   9.0  4.0  C/2018 A6 (Gibbs)                                        MPC119996
    CK18B010  2018 03 29.2801  5.117351  1.000573   68.3152  133.1906  162.4202  20210511   9.0  4.0  C/2018 B1 (Lemmon)                                       MPC118841
    PK18C010  2018 02 25.4986  2.641511  0.532833  235.6997  270.3752    5.1191  20210511  13.5  4.0  P/2018 C1 (Lemmon-Read)                                  MPC114601
    CK18C020  2018 06  1.5514  1.958782  1.000653  134.1099   91.1550   34.4602  20210511  13.0  4.0  C/2018 C2 (Lemmon)                                       MPC114601
